NORAD_CAT_ID,OBJECT_NAME,OBJECT_TYPE,EPOCH,MEAN_MOTION,ECCENTRICITY,INCLINATION,RA_OF_ASC_NODE,ARG_OF_PERICENTER,MEAN_ANOMALY,BSTAR,MEAN_MOTION_DOT,MEAN_MOTION_DDOT,TLE_LINE0,TLE_LINE1,TLE_LINE2,SEMIMAJOR_AXIS,PERIOD,APOGEE,PERIGEE,DECAYED
52121.0,STARLINK-3678,PAYLOAD,2024-03-22 22:00:36,15.08831816,0.0001685,53.2181,46.8373,94.6146,265.5038,5.3378e-05,5.61e-06,0.0,0 STARLINK-3678,1 52121U 22029AK  24082.91708764  .00000561  00000-0  53378-4 0  9996,2 52121  53.2181  46.8373 0001685  94.6146 265.5038 15.08831816112716,6917.905,95.438,540.936,538.605,0.0
52121.0,STARLINK-3678,PAYLOAD,2024-03-23 04:22:08,15.08842595,0.000182,53.219,45.6488,102.4416,257.678,6.9372e-05,8.16e-06,0.0,0 STARLINK-3678,1 52121U 22029AK  24083.18204275  .00000816  00000-0  69372-4 0  9998,2 52121  53.2190  45.6488 0001820 102.4416 257.6780 15.08842595112755,6917.872,95.437,540.997,538.478,0.0
52121.0,STARLINK-3678,PAYLOAD,2024-03-23 21:51:22,15.08803211,0.00013,53.2186,42.3778,80.8664,279.2475,0.00080544,0.00012541,0.0,0 STARLINK-3678,1 52121U 22029AK  24083.91068159  .00012541  00000-0  80544-3 0  9999,2 52121  53.2186  42.3778 0001300  80.8664 279.2475 15.08803211112868,6917.993,95.44,540.757,538.959,0.0
52121.0,STARLINK-3678,PAYLOAD,2024-03-24 04:12:54,15.0883846,0.0002141,53.2195,41.187,111.7753,248.3467,0.00051148,7.861e-05,0.0,0 STARLINK-3678,1 52121U 22029AK  24084.17563579  .00007861  00000-0  51148-3 0  9991,2 52121  53.2195  41.1870 0002141 111.7753 248.3467 15.08838460112902,6917.885,95.438,541.231,538.269,0.0
52121.0,STARLINK-3678,PAYLOAD,2024-03-24 20:06:46,15.08856131,0.0002391,53.2197,38.211,141.5314,218.5849,9.5453e-05,1.232e-05,0.0,0 STARLINK-3678,1 52121U 22029AK  24084.83803556  .00001232  00000-0  95453-4 0  9990,2 52121  53.2197  38.2110 0002391 141.5314 218.5849 15.08856131113009,6917.831,95.437,541.35,538.042,0.0
52121.0,STARLINK-3678,PAYLOAD,2024-03-25 04:03:42,15.0883745,0.0001274,53.2183,36.727,100.7011,259.4125,-0.00019275,-3.354e-05,0.0,0 STARLINK-3678,1 52121U 22029AK  24085.16924150 -.00003354  00000-0 -19275-3 0  9997,2 52121  53.2183  36.7270 0001274 100.7011 259.4125 15.08837450113053,6917.888,95.438,540.635,538.872,0.0
52121.0,STARLINK-3678,PAYLOAD,2024-03-26 05:29:54,15.08825587,0.0001319,53.2184,31.9701,107.3765,252.7371,-0.00021306,-3.676e-05,0.0,0 STARLINK-3678,1 52121U 22029AK  24086.22910630 -.00003676  00000-0 -21306-3 0  9998,2 52121  53.2184  31.9701 0001319 107.3765 252.7371 15.08825587113214,6917.924,95.438,540.702,538.877,0.0
52121.0,STARLINK-3678,PAYLOAD,2024-03-26 13:26:49,15.08840651,0.0001083,53.2199,30.481,90.5737,269.538,-0.00014953,-2.667e-05,0.0,0 STARLINK-3678,1 52121U 22029AK  24086.56029439 -.00002667  00000-0 -14953-3 0  9992,2 52121  53.2199  30.4810 0001083  90.5737 269.5380 15.08840651113265,6917.878,95.438,540.493,538.994,0.0
52121.0,STARLINK-3678,PAYLOAD,2024-03-27 03:45:15,15.08855988,9.81e-05,53.2192,27.8078,81.5756,278.5347,0.00036812,5.578e-05,0.0,0 STARLINK-3678,1 52121U 22029AK  24087.15643338  .00005578  00000-0  36812-3 0  9998,2 52121  53.2192  27.8078 0000981  81.5756 278.5347 15.08855988113353,6917.832,95.437,540.375,539.018,0.0
52121.0,STARLINK-3678,PAYLOAD,2024-03-27 13:17:34,15.08859077,9.75e-05,53.2187,26.023,78.1486,281.9615,0.00037085,5.622e-05,0.0,0 STARLINK-3678,1 52121U 22029AK  24087.55386683  .00005622  00000-0  37085-3 0  9992,2 52121  53.2187  26.0230 0000975  78.1486 281.9615 15.08859077113419,6917.822,95.436,540.362,539.013,0.0
52121.0,STARLINK-3678,PAYLOAD,2024-03-27 19:39:09,15.08820436,0.0001488,53.2199,24.831,86.2274,273.8888,0.00014537,2.025e-05,0.0,0 STARLINK-3678,1 52121U 22029AK  24087.81885848  .00002025  00000-0  14537-3 0  9999,2 52121  53.2199  24.8310 0001488  86.2274 273.8888 15.08820436113455,6917.94,95.439,540.835,538.776,0.0
52121.0,STARLINK-3678,PAYLOAD,2024-03-28 05:11:27,15.08834752,0.0001406,53.2204,23.0458,91.1915,268.9238,0.00023873,3.513e-05,0.0,0 STARLINK-3678,1 52121U 22029AK  24088.21628965  .00003513  00000-0  23873-3 0  9995,2 52121  53.2204  23.0458 0001406  91.1915 268.9238 15.08834752113510,6917.896,95.438,540.734,538.789,0.0
52121.0,STARLINK-3678,PAYLOAD,2024-03-28 13:08:22,15.08845708,0.0001437,53.2212,21.5593,86.7918,273.3238,0.00025924,3.841e-05,0.0,0 STARLINK-3678,1 52121U 22029AK  24088.54748129  .00003841  00000-0  25924-3 0  9999,2 52121  53.2212  21.5593 0001437  86.7918 273.3238 15.08845708113567,6917.863,95.437,540.722,538.734,0.0
52121.0,STARLINK-3678,PAYLOAD,2024-03-28 22:40:42,15.08844392,0.0001303,53.2208,19.7763,84.7647,275.3494,-0.00012416,-2.264e-05,0.0,0 STARLINK-3678,1 52121U 22029AK  24088.94493063 -.00002264  00000-0 -12416-3 0  9999,2 52121  53.2208  19.7763 0001303  84.7647 275.3494 15.08844392113620,6917.867,95.437,540.633,538.831,0.0
52121.0,STARLINK-3678,PAYLOAD,2024-03-29 01:51:27,15.08855591,0.0001436,53.2205,19.1815,88.7853,271.3304,-0.00016477,-2.91e-05,0.0,0 STARLINK-3678,1 52121U 22029AK  24089.07740451 -.00002910  00000-0 -16477-3 0  9999,2 52121  53.2205  19.1815 0001436  88.7853 271.3304 15.08855591113640,6917.833,95.437,540.691,538.704,0.0
52121.0,STARLINK-3678,PAYLOAD,2024-03-29 19:20:41,15.08841956,0.0001776,53.2199,15.9108,94.4161,265.7034,9.8894e-05,1.286e-05,0.0,0 STARLINK-3678,1 52121U 22029AK  24089.80603930  .00001286  00000-0  98894-4 0  9997,2 52121  53.2199  15.9108 0001776  94.4161 265.7034 15.08841956113753,6917.874,95.437,540.968,538.511,0.0
52121.0,STARLINK-3678,PAYLOAD,2024-03-29 22:31:28,15.08832859,0.0001523,53.2205,15.3131,110.815,249.3005,0.00016106,2.276e-05,0.0,0 STARLINK-3678,1 52121U 22029AK  24089.93852215  .00002276  00000-0  16106-3 0  9998,2 52121  53.2205  15.3131 0001523 110.8150 249.3005 15.08832859113772,6917.902,95.438,540.821,538.714,0.0
52121.0,STARLINK-3678,PAYLOAD,2024-03-30 04:53:00,15.08842802,0.0001603,53.2207,14.1255,99.7376,260.3798,1.8558e-05,7e-08,0.0,0 STARLINK-3678,1 52121U 22029AK  24090.20348086  .00000007  00000-0  18558-4 0  9990,2 52121  53.2207  14.1255 0001603  99.7376 260.3798 15.08842802113818,6917.872,95.437,540.846,538.628,0.0
52121.0,STARLINK-3678,PAYLOAD,2024-03-30 22:22:13,15.08921112,0.000188,53.2201,10.8538,81.1038,279.0167,-0.0012014,-0.000194,0.0,0 STARLINK-3678,1 52121U 22029AK  24090.93209947 -.00019400  00000-0 -12014-2 0  9990,2 52121  53.2201  10.8538 0001880  81.1038 279.0167 15.08921112113927,6917.632,95.432,540.798,538.197,0.0
52121.0,STARLINK-3678,PAYLOAD,2024-03-31 04:43:48,15.08835121,0.0001399,53.2196,9.6643,96.1207,263.9944,-2.677e-05,-7.14e-06,0.0,0 STARLINK-3678,1 52121U 22029AK  24091.19708755 -.00000714  00000-0 -26770-4 0  9994,2 52121  53.2196   9.6643 0001399  96.1207 263.9944 15.08835121113965,6917.895,95.438,540.728,538.792,0.0
52121.0,STARLINK-3678,PAYLOAD,2024-03-31 11:05:20,15.08845231,0.0001279,53.22,8.4786,94.1495,265.9644,6.6213e-05,7.66e-06,0.0,0 STARLINK-3678,1 52121U 22029AK  24091.46203784  .00000766  00000-0  66213-4 0  9997,2 52121  53.2200   8.4786 0001279  94.1495 265.9644 15.08845231114008,6917.864,95.437,540.614,538.845,0.0
52121.0,STARLINK-3678,PAYLOAD,2024-03-31 19:02:16,15.0883139,0.0001898,53.2208,6.9953,101.3235,258.797,2.6652e-05,1.36e-06,0.0,0 STARLINK-3678,1 52121U 22029AK  24091.79324996  .00000136  00000-0  26652-4 0  9996,2 52121  53.2208   6.9953 0001898 101.3235 258.7970 15.08831390114053,6917.907,95.438,541.085,538.459,0.0
52121.0,STARLINK-3678,PAYLOAD,2024-03-31 22:13:03,15.0882563,0.0001388,53.2214,6.4028,94.805,265.3101,1.9966e-05,3e-07,0.0,0 STARLINK-3678,1 52121U 22029AK  24091.92573451  .00000030  00000-0  19966-4 0  9996,2 52121  53.2214   6.4028 0001388  94.8050 265.3101 15.08825630114075,6917.924,95.438,540.75,538.829,0.0
52121.0,STARLINK-3678,PAYLOAD,2024-04-01 10:56:07,15.08840324,0.0001403,53.2201,4.0189,93.2077,266.9076,3.288e-05,2.35e-06,0.0,0 STARLINK-3678,1 52121U 22029AK  24092.45564579  .00000235  00000-0  32880-4 0  9993,2 52121  53.2201   4.0189 0001403  93.2077 266.9076 15.08840324114157,6917.879,95.438,540.715,538.774,0.0
52121.0,STARLINK-3678,PAYLOAD,2024-04-01 17:17:40,15.08832927,0.0001368,53.2204,2.8299,94.2863,265.8285,6.8983e-05,8.1e-06,0.0,0 STARLINK-3678,1 52121U 22029AK  24092.72061059  .00000810  00000-0  68983-4 0  9990,2 52121  53.2204   2.8299 0001368  94.2863 265.8285 15.08832927114196,6917.902,95.438,540.713,538.821,0.0
52121.0,STARLINK-3678,PAYLOAD,2024-04-02 02:49:55,15.08880233,0.0001093,53.2195,1.0457,98.0407,262.0709,0.00036052,5.461e-05,0.0,0 STARLINK-3678,1 52121U 22029AK  24093.11800920  .00005461  00000-0  36052-3 0  9990,2 52121  53.2195   1.0457 0001093  98.0407 262.0709 15.08880233114253,6917.757,95.435,540.379,538.866,0.0
52121.0,STARLINK-3678,PAYLOAD,2024-04-02 10:46:50,15.08890005,0.0001462,53.22,359.5588,67.0975,293.0171,0.00040229,6.129e-05,0.0,0 STARLINK-3678,1 52121U 22029AK  24093.44919526  .00006129  00000-0  40229-3 0  9992,2 52121  53.2200 359.5588 0001462  67.0975 293.0171 15.08890005114303,6917.728,95.434,540.604,538.581,0.0
52121.0,STARLINK-3678,PAYLOAD,2024-04-03 05:51:33,15.08824432,0.0001462,53.2199,355.9898,79.1542,280.9615,-9.4463e-05,-1.79e-05,0.0,0 STARLINK-3678,1 52121U 22029AK  24094.24413674 -.00001790  00000-0 -94463-4 0  9995,2 52121  53.2199 355.9898 0001462  79.1542 280.9615 15.08824432114420,6917.928,95.439,540.804,538.782,0.0
52121.0,STARLINK-3678,PAYLOAD,2024-04-03 23:20:47,15.0883832,0.0001562,53.2189,352.7213,84.392,275.725,-3.412e-05,-8.31e-06,0.0,0 STARLINK-3678,1 52121U 22029AK  24094.97276887 -.00000831  00000-0 -34120-4 0  9997,2 52121  53.2189 352.7213 0001562  84.3920 275.7250 15.08838320114534,6917.886,95.438,540.831,538.67,0.0
52121.0,STARLINK-3678,PAYLOAD,2024-04-04 02:31:33,15.08845619,0.0001352,53.2189,352.1253,81.6152,278.4994,-4.1788e-05,-9.53e-06,0.0,0 STARLINK-3678,1 52121U 22029AK  24095.10524402 -.00000953  00000-0 -41788-4 0  9995,2 52121  53.2189 352.1253 0001352  81.6152 278.4994 15.08845619114552,6917.863,95.437,540.664,538.793,0.0
